[{"OBJECT_NAME":"LEMUR-2-ZACHARY","OBJECT_ID":"2017-042W","EPOCH":"2026-03-09T14:05:48.863904","MEAN_MOTION":15.42065256,"ECCENTRICITY":0.0003644,"INCLINATION":97.366,"RA_OF_ASC_NODE":258.6799,"ARG_OF_PERICENTER":18.2328,"MEAN_ANOMALY":341.9049,"EPHEMERIS_TYPE":0,"CLASSIFICATION_TYPE":"U","NORAD_CAT_ID":42845,"ELEMENT_SET_NO":999,"REV_AT_EPOCH":47381,"BSTAR":0.00087895,"MEAN_MOTION_DOT":0.000376,"MEAN_MOTION_DDOT":0},{"OBJECT_NAME":"JACKAL X-1L-001","OBJECT_ID":"2024-043AF","EPOCH":"2026-03-09T21:53:51.909504","MEAN_MOTION":15.41200084,"ECCENTRICITY":0.00073606,"INCLINATION":97.5425,"RA_OF_ASC_NODE":210.2937,"ARG_OF_PERICENTER":209.2709,"MEAN_ANOMALY":150.8126,"EPHEMERIS_TYPE":0,"CLASSIFICATION_TYPE":"U","NORAD_CAT_ID":59127,"ELEMENT_SET_NO":999,"REV_AT_EPOCH":11224,"BSTAR":0.00050692817,"MEAN_MOTION_DOT":0.00021003,"MEAN_MOTION_DDOT":0}]
